HORYU-4                 
1 41340U 16012D   20021.78039784  .00000356  00000-0  20236-4 0  9994
2 41340  31.0036 192.1506 0013717 123.4846 236.7102 15.01399406215667
E-ST@R-II               
1 41459U 16025D   20022.11425487  .00000011  00000-0  52358-5 0  9995
2 41459  98.0975 124.5772 0165898 348.0707  11.6606 15.05987975205268
AAUSAT 4                
1 41460U 16025E   20022.20220927  .00001112  00000-0  59024-4 0  9998
2 41460  98.0956 126.5087 0155114 338.0255  21.4368 15.08102519205447
DIWATA-1                
1 41463U 98067HT  20022.05638951  .00053794  12470-4  12900-3 0  9992
2 41463  51.6217 188.0243 0002150 214.8546 249.1691 15.96954049214300
BEESAT-4                
1 41619U 16040W   20021.60970571  .00000907  00000-0  40726-4 0  9991
2 41619  97.3412  84.5089 0010659 349.2016  10.8990 15.23624266186884
CANX-7                  
1 41788U 16059F   20022.19765813  .00006611  00000-0  95389-3 0  9996
2 41788  98.2513 106.5866 0024863  56.5544 303.8071 14.76388974178074
RAVAN                   
1 41849U 16067B   20022.10363241  .00000779  00000-0  70415-4 0  9996
2 41849  97.9252 129.5733 0008416  28.1834 331.9842 14.98424657174559
CELTEE 1                
1 41850U 16067C   20021.23101267  .00000545  00000-0  52485-4 0  9997
2 41850  97.9206 126.8358 0009238  32.2648 327.9136 14.97107731174321
OPTICUBE 04             
1 41851U 16067D   20022.00594084 -.00000312  00000-0 -21876-4 0  9991
2 41851  97.9197 127.3164 0009392  28.3119 331.8611 14.96873127174423
AEROCUBE 8D             
1 41852U 16067E   20022.15273144  .00000221  00000-0  24587-4 0  9998
2 41852  97.9203 127.2931 0009943  29.0196 331.1576 14.96824219174429
AEROCUBE 8C             
1 41853U 16067F   20021.51232334  .00000422  00000-0  42167-4 0  9991
2 41853  97.9212 126.5628 0010759  33.2672 326.9224 14.96795142174321
PROMETHEUS 2-1          
1 41854U 16067G   20022.11286478  .00000572  00000-0  54891-4 0  9990
2 41854  97.9221 127.4120 0010935  30.6117 329.5740 14.97071207174423
PROMETHEUS 2-3          
1 41855U 16067H   20022.04742283  .00000490  00000-0  47716-4 0  9991
2 41855  97.9224 127.3709 0011140  30.9565 329.2311 14.97080313174416
INS-1B                  
1 41954U 17008G   20021.80343674  .00000852  00000-0  37585-4 0  9996
2 41954  97.3746  88.7273 0010795 100.5784 259.6670 15.24417804162878
BGUSAT                  
1 41999U 17008BD  20022.18062532  .00001475  00000-0  58551-4 0  9996
2 41999  97.3843  92.4644 0009662 108.8014 251.4273 15.26897607162477
DIDO-2                  
1 42000U 17008BE  20021.61146269  .00000608  00000-0  27812-4 0  9990
2 42000  97.3758  89.0822 0010010 116.5506 243.6759 15.24233615162245
PEASSS                  
1 42015U 17008BV  20022.15418670  .00000806  00000-0  34863-4 0  9998
2 42015  97.3773  90.9347 0007837 117.4137 242.7899 15.25288494162896
AL-FARABI 1             
1 42016U 17008BW  20021.26850429  .00001035  00000-0  42975-4 0  9990
2 42016  97.3798  90.8771 0007667 119.1852 241.0155 15.26035999162920
NAYIF-1 (EO-88)         
1 42017U 17008BX  20021.31658233  .00001032  00000-0  42815-4 0  9996
2 42017  97.3794  90.9363 0007680 118.9979 241.2030 15.26073425162950
NSIGHT                  
1 42726U 98067MF  20022.04484129  .00052823  00000-0  21921-3 0  9997
2 42726  51.6304 268.0235 0001478 242.5148 117.5705 15.85237025152118
UCLSAT                  
1 42765U 17036A   20022.15057896  .00000881  00000-0  40128-4 0  9994
2 42765  97.3233  80.1992 0011445 176.6801 183.4514 15.23185425143567
LITUANICASAT-2          
1 42768U 17036D   20021.84111148  .00001397  00000-0  61279-4 0  9996
2 42768  97.3280  79.6726 0015218 170.1569 189.9970 15.23508423143364
AALTO-1                 
1 42775U 17036L   20022.15763106  .00000514  00000-0  25727-4 0  9994
2 42775  97.3211  78.4229 0014172 170.4363 189.7146 15.21623962143271
URSA MAIOR              
1 42776U 17036M   20021.30869404  .00000545  00000-0  26968-4 0  9991
2 42776  97.3225  77.8211 0013916 173.1464 186.9965 15.21782318143154
COMPASS 2               
1 42777U 17036N   20021.78878671  .00001122  00000-0  49879-4 0  9998
2 42777  97.3274  80.0794 0012690 170.1836 189.9651 15.23471004143311
DIAMOND RED             
1 42783U 17036U   20022.14695118  .00000678  00000-0  32150-4 0  9998
2 42783  97.3233  79.6084 0012108 178.7710 181.3558 15.22558209143334
PEGASUS                 
1 42784U 17036V   20021.62119349  .00000758  00000-0  35222-4 0  9990
2 42784  97.3239  79.4290 0011946 179.6840 180.4406 15.22899020143275
DIAMOND GREEN           
1 42785U 17036W   20022.14577427  .00000685  00000-0  32417-4 0  9996
2 42785  97.3234  79.6378 0011996 179.2931 180.8325 15.22559442143323
DIAMOND BLUE            
1 42786U 17036X   20022.14496026  .00000667  00000-0  31674-4 0  9996
2 42786  97.3235  79.6336 0011831 179.4744 180.6508 15.22558129143323
NUDTSAT                 
1 42787U 17036Y   20022.12598430  .00001402  00000-0  60590-4 0  9994
2 42787  97.3282  80.9995 0010045 176.1562 183.9752 15.24062523143259
SUCHAI                  
1 42788U 17036Z   20022.15564376  .00000914  00000-0  41310-4 0  9996
2 42788  97.3244  80.4102 0011609 176.3483 183.7841 15.23389303143450
SKCUBE                  
1 42789U 17036AA  20021.46510870  .00000839  00000-0  38290-4 0  9999
2 42789  97.3241  79.6306 0011387 178.8299 181.2966 15.23256252143265
VZLUSAT-1               
1 42790U 17036AB  20021.58866504  .00001179  00000-0  51426-4 0  9996
2 42790  97.3261  80.4697 0011007 176.4133 183.7185 15.24046822143320
ROBUSTA-1B              
1 42792U 17036AD  20021.10845139  .00000990  00000-0  44437-4 0  9991
2 42792  97.3243  79.4894 0010923 180.3268 179.7964 15.23436749143238
CICERO 6                
1 42793U 17036AE  20022.15415727  .00000573  00000-0  27372-4 0  9990
2 42793  97.3220  80.0920 0010270 178.2282 181.8993 15.22894768143446
D-SAT                   
1 42794U 17036AF  20021.55437548  .00000010  00000-0  61175-5 0  9995
2 42794  97.5131  61.3803 0127430 138.0762 223.0300 14.91205440140655
CORVUS BC2              
1 42846U 17042X   20022.17216174  .00000266  00000-0  31465-4 0  9990
2 42846  97.5429 272.1801 0010859  54.8172 305.4063 14.92050902137445
CORVUS BC1              
1 42847U 17042Y   20021.50723190  .00000268  00000-0  31586-4 0  9994
2 42847  97.5431 271.6864 0010531  56.3342 303.8880 14.92151723137346
MIRATA                  
1 43015U 17073C   20021.56268921  .00000407  00000-0  36939-4 0  9990
2 43015  97.7230 299.3919 0254283 170.5883 190.0229 14.79366849117358
MAKERSAT 0              
1 43016U 17073D   20021.28149930  .00000247  00000-0  24606-4 0  9998
2 43016  97.7268 299.3209 0256797 172.2234 188.3082 14.79013720117302
ASTERIA                 
1 43020U 98067NH  20022.10258149  .00058523  00000-0  24826-3 0  9993
2 43020  51.6403 280.0709 0001986 197.0407 163.0530 15.84735486124149
DELLINGR (RBLE)         
1 43021U 98067NJ  20022.16175091  .00010340  00000-0  10044-3 0  9996
2 43021  51.6377 310.4462 0001679 179.6271 180.4726 15.66976406123742
AEROCUBE 7B (OCSD B)    
1 43042U 17071F   20021.83650253  .00002339  00000-0  62449-4 0  9992
2 43042  51.6387  70.3325 0004118 222.4166 137.6502 15.42517567119583
AEROCUBE 7C (OCSD C)    
1 43043U 17071G   20021.57843016  .00002306  00000-0  61756-4 0  9999
2 43043  51.6386  71.6239 0004329 226.1400 133.9228 15.42494359119517
CHEFSAT                 
1 43044U 17071H   20021.52244718  .00005529  00000-0  11913-3 0  9998
2 43044  51.6394  61.7048 0003972 229.4746 130.5896 15.46224722119644
ASGARDIA 1              
1 43049U 17071N   20021.83776510  .00002186  00000-0  58826-4 0  9998
2 43049  51.6398  69.6604 0001871 242.8336 117.2459 15.42594915119555
ISARA                   
1 43050U 17071P   20021.55206500  .00003813  00000-0  86906-4 0  9994
2 43050  51.6378  63.3198 0001692 242.9651 117.1164 15.45505868119628
PROPCUBE 2 (FAUNA)      
1 43052U 17071R   20021.53956913  .00002519  00000-0  65579-4 0  9999
2 43052  51.6393  69.9382 0001804 236.4724 123.6089 15.42962786119528
CORVUS BC3              
1 43118U 18004H   20021.22798851  .00000525  00000-0  25243-4 0  9999
2 43118  97.4627  92.5938 0009659 204.5757 155.5021 15.23137947112431
MICROMAS-2A             
1 43131U 18004W   20022.14665966  .00001363  00000-0  57907-4 0  9999
2 43131  97.4663  94.7572 0008693 200.1743 159.9152 15.24767832112647
SPACEBEE-4              
1 43139U 18004AE  20021.50771561  .00001788  00000-0  72722-4 0  9998
2 43139  97.4690  94.9745 0008016 203.3458 156.7417 15.25848895112599
SPACEBEE-3              
1 43140U 18004AF  20021.33384916  .00002145  00000-0  84809-4 0  9992
2 43140  97.4703  95.2763 0007847 202.7186 157.3706 15.26571208112592
SPACEBEE-2              
1 43141U 18004AG  20022.19219507  .00002540  00000-0  99147-4 0  9991
2 43141  97.4716  96.3077 0007966 198.4478 161.6472 15.26821962112733
SPACEBEE-1              
1 43142U 18004AH  20022.19061590  .00002724  00000-0  10523-3 0  9993
2 43142  97.4718  96.4884 0007969 198.4873 161.6077 15.27104890112731
CICERO 7                
1 43143U 18004AJ  20022.15410425  .00001228  00000-0  52340-4 0  9997
2 43143  97.4645  94.9701 0006644 207.8483 152.2399 15.24856486112660
GOMX-4B                 
1 43196U 18015E   20021.57157038  .00000229  00000-0  12379-4 0  9998
2 43196  97.4174 151.4685 0017345 265.3321  94.5932 15.24118059109377
GOMX-4A                 
1 43197U 18015F   20022.15058191  .00000545  00000-0  25209-4 0  9991
2 43197  97.4158 152.0914 0017211 262.8560 222.2522 15.24282623109476
1KUNS-PF                
1 43466U 98067NP  20022.17254570  .00041334  00000-0  24520-3 0  9991
2 43466  51.6328 302.8639 0001394 134.9438 225.1676 15.77604281 97107
UBAKUSAT                
1 43467U 98067NQ  20022.17632442  .00016258  00000-0  14488-3 0  9999
2 43467  51.6361 315.7298 0002100 146.2997 213.8134 15.68621178 96949
